[{"OBJECT_NAME":"SKYSAT-A","OBJECT_ID":"2013-066C","EPOCH":"2026-04-05T16:40:40.109952","MEAN_MOTION":15.12563064,"ECCENTRICITY":0.0021139,"INCLINATION":97.389,"RA_OF_ASC_NODE":147.3945,"ARG_OF_PERICENTER":201.1397,"MEAN_ANOMALY":158.8962,"EPHEMERIS_TYPE":0,"CLASSIFICATION_TYPE":"U","NORAD_CAT_ID":39418,"ELEMENT_SET_NO":999,"REV_AT_EPOCH":67752,"BSTAR":0.00027836,"MEAN_MOTION_DOT":4.816e-5,"MEAN_MOTION_DDOT":0},{"OBJECT_NAME":"SKYSAT-B","OBJECT_ID":"2014-037D","EPOCH":"2026-04-05T20:00:00.276192","MEAN_MOTION":14.87837532,"ECCENTRICITY":0.0006314,"INCLINATION":98.3775,"RA_OF_ASC_NODE":50.7149,"ARG_OF_PERICENTER":141.6421,"MEAN_ANOMALY":218.5244,"EPHEMERIS_TYPE":0,"CLASSIFICATION_TYPE":"U","NORAD_CAT_ID":40072,"ELEMENT_SET_NO":999,"REV_AT_EPOCH":63520,"BSTAR":0.00027048,"MEAN_MOTION_DOT":2.412e-5,"MEAN_MOTION_DDOT":0},{"OBJECT_NAME":"SKYSAT-C1","OBJECT_ID":"2016-040C","EPOCH":"2026-04-05T08:48:19.968192","MEAN_MOTION":15.35104314,"ECCENTRICITY":6.026e-5,"INCLINATION":96.9644,"RA_OF_ASC_NODE":131.0677,"ARG_OF_PERICENTER":326.579,"MEAN_ANOMALY":33.5417,"EPHEMERIS_TYPE":0,"CLASSIFICATION_TYPE":"U","NORAD_CAT_ID":41601,"ELEMENT_SET_NO":999,"REV_AT_EPOCH":54669,"BSTAR":0.00036517433,"MEAN_MOTION_DOT":0.00012372,"MEAN_MOTION_DDOT":0},{"OBJECT_NAME":"SKYSAT-C4","OBJECT_ID":"2016-058B","EPOCH":"2026-04-05T12:27:32.846688","MEAN_MOTION":15.46402302,"ECCENTRICITY":0.00030201,"INCLINATION":96.9246,"RA_OF_ASC_NODE":120.4257,"ARG_OF_PERICENTER":124.5066,"MEAN_ANOMALY":235.647,"EPHEMERIS_TYPE":0,"CLASSIFICATION_TYPE":"U","NORAD_CAT_ID":41771,"ELEMENT_SET_NO":999,"REV_AT_EPOCH":53423,"BSTAR":0.00037982116,"MEAN_MOTION_DOT":0.00018723,"MEAN_MOTION_DDOT":0},{"OBJECT_NAME":"SKYSAT-C5","OBJECT_ID":"2016-058C","EPOCH":"2026-04-05T16:45:39.070368","MEAN_MOTION":15.34258715,"ECCENTRICITY":0.0002317,"INCLINATION":97.0553,"RA_OF_ASC_NODE":139.5856,"ARG_OF_PERICENTER":169.3401,"MEAN_ANOMALY":190.7892,"EPHEMERIS_TYPE":0,"CLASSIFICATION_TYPE":"U","NORAD_CAT_ID":41772,"ELEMENT_SET_NO":999,"REV_AT_EPOCH":53263,"BSTAR":0.0003029,"MEAN_MOTION_DOT":9.974e-5,"MEAN_MOTION_DDOT":0},{"OBJECT_NAME":"SKYSAT-C2","OBJECT_ID":"2016-058D","EPOCH":"2026-04-05T19:15:55.968768","MEAN_MOTION":15.40487567,"ECCENTRICITY":0.0001949,"INCLINATION":97.024,"RA_OF_ASC_NODE":120.6838,"ARG_OF_PERICENTER":351.1663,"MEAN_ANOMALY":8.9549,"EPHEMERIS_TYPE":0,"CLASSIFICATION_TYPE":"U","NORAD_CAT_ID":41773,"ELEMENT_SET_NO":999,"REV_AT_EPOCH":53390,"BSTAR":0.0003829,"MEAN_MOTION_DOT":0.00015457,"MEAN_MOTION_DDOT":0},{"OBJECT_NAME":"SKYSAT-C3","OBJECT_ID":"2016-058E","EPOCH":"2026-04-05T16:35:35.955168","MEAN_MOTION":15.49643374,"ECCENTRICITY":0.0002441,"INCLINATION":96.9117,"RA_OF_ASC_NODE":129.4336,"ARG_OF_PERICENTER":110.9766,"MEAN_ANOMALY":249.1748,"EPHEMERIS_TYPE":0,"CLASSIFICATION_TYPE":"U","NORAD_CAT_ID":41774,"ELEMENT_SET_NO":999,"REV_AT_EPOCH":53487,"BSTAR":0.00048593,"MEAN_MOTION_DOT":0.0002686,"MEAN_MOTION_DDOT":0},{"OBJECT_NAME":"SKYSAT-C11","OBJECT_ID":"2017-068A","EPOCH":"2026-04-05T20:06:57.732480","MEAN_MOTION":15.54250971,"ECCENTRICITY":5.37e-5,"INCLINATION":97.4257,"RA_OF_ASC_NODE":241.769,"ARG_OF_PERICENTER":165.1674,"MEAN_ANOMALY":194.9596,"EPHEMERIS_TYPE":0,"CLASSIFICATION_TYPE":"U","NORAD_CAT_ID":42987,"ELEMENT_SET_NO":999,"REV_AT_EPOCH":47199,"BSTAR":0.00048691,"MEAN_MOTION_DOT":0.00031742,"MEAN_MOTION_DDOT":0},{"OBJECT_NAME":"SKYSAT-C10","OBJECT_ID":"2017-068B","EPOCH":"2026-04-05T19:41:12.469344","MEAN_MOTION":15.3337305,"ECCENTRICITY":0.0001023,"INCLINATION":97.4396,"RA_OF_ASC_NODE":232.0807,"ARG_OF_PERICENTER":110.1182,"MEAN_ANOMALY":250.017,"EPHEMERIS_TYPE":0,"CLASSIFICATION_TYPE":"U","NORAD_CAT_ID":42988,"ELEMENT_SET_NO":999,"REV_AT_EPOCH":47126,"BSTAR":0.00039338,"MEAN_MOTION_DOT":0.00012615,"MEAN_MOTION_DDOT":0},{"OBJECT_NAME":"SKYSAT-C9","OBJECT_ID":"2017-068C","EPOCH":"2026-04-05T15:00:37.261728","MEAN_MOTION":15.39810989,"ECCENTRICITY":0.0009266,"INCLINATION":97.4316,"RA_OF_ASC_NODE":232.1539,"ARG_OF_PERICENTER":45.3142,"MEAN_ANOMALY":314.8857,"EPHEMERIS_TYPE":0,"CLASSIFICATION_TYPE":"U","NORAD_CAT_ID":42989,"ELEMENT_SET_NO":999,"REV_AT_EPOCH":47158,"BSTAR":0.00043761,"MEAN_MOTION_DOT":0.00017309,"MEAN_MOTION_DDOT":0},{"OBJECT_NAME":"SKYSAT-C8","OBJECT_ID":"2017-068D","EPOCH":"2026-04-05T15:17:02.481792","MEAN_MOTION":15.35535036,"ECCENTRICITY":0.0001045,"INCLINATION":97.441,"RA_OF_ASC_NODE":231.429,"ARG_OF_PERICENTER":94.5672,"MEAN_ANOMALY":265.5691,"EPHEMERIS_TYPE":0,"CLASSIFICATION_TYPE":"U","NORAD_CAT_ID":42990,"ELEMENT_SET_NO":999,"REV_AT_EPOCH":47117,"BSTAR":0.00043474,"MEAN_MOTION_DOT":0.00014945,"MEAN_MOTION_DDOT":0},{"OBJECT_NAME":"SKYSAT-C7","OBJECT_ID":"2017-068E","EPOCH":"2026-04-05T19:45:30.290400","MEAN_MOTION":15.35488932,"ECCENTRICITY":0.0006149,"INCLINATION":97.4421,"RA_OF_ASC_NODE":232.6019,"ARG_OF_PERICENTER":18.6284,"MEAN_ANOMALY":341.5183,"EPHEMERIS_TYPE":0,"CLASSIFICATION_TYPE":"U","NORAD_CAT_ID":42991,"ELEMENT_SET_NO":999,"REV_AT_EPOCH":47126,"BSTAR":0.00040445,"MEAN_MOTION_DOT":0.00013883,"MEAN_MOTION_DDOT":0},{"OBJECT_NAME":"SKYSAT-C6","OBJECT_ID":"2017-068F","EPOCH":"2026-04-05T08:05:54.630240","MEAN_MOTION":15.33178084,"ECCENTRICITY":0.00034643,"INCLINATION":97.4455,"RA_OF_ASC_NODE":232.3168,"ARG_OF_PERICENTER":62.5831,"MEAN_ANOMALY":297.5763,"EPHEMERIS_TYPE":0,"CLASSIFICATION_TYPE":"U","NORAD_CAT_ID":42992,"ELEMENT_SET_NO":999,"REV_AT_EPOCH":47115,"BSTAR":0.00043457739,"MEAN_MOTION_DOT":0.00013863,"MEAN_MOTION_DDOT":0},{"OBJECT_NAME":"SKYSAT-C12","OBJECT_ID":"2018-099AR","EPOCH":"2026-04-05T19:29:27.873024","MEAN_MOTION":15.46672743,"ECCENTRICITY":0.0005801,"INCLINATION":96.9335,"RA_OF_ASC_NODE":122.0557,"ARG_OF_PERICENTER":72.7479,"MEAN_ANOMALY":287.4407,"EPHEMERIS_TYPE":0,"CLASSIFICATION_TYPE":"U","NORAD_CAT_ID":43797,"ELEMENT_SET_NO":999,"REV_AT_EPOCH":41066,"BSTAR":0.00040056,"MEAN_MOTION_DOT":0.00019946,"MEAN_MOTION_DDOT":0},{"OBJECT_NAME":"SKYSAT-C13","OBJECT_ID":"2018-099AW","EPOCH":"2026-04-05T14:12:13.683456","MEAN_MOTION":15.8271373,"ECCENTRICITY":0.0005285,"INCLINATION":96.9313,"RA_OF_ASC_NODE":143.3811,"ARG_OF_PERICENTER":131.6837,"MEAN_ANOMALY":228.4886,"EPHEMERIS_TYPE":0,"CLASSIFICATION_TYPE":"U","NORAD_CAT_ID":43802,"ELEMENT_SET_NO":999,"REV_AT_EPOCH":41141,"BSTAR":0.00062984,"MEAN_MOTION_DOT":0.00133646,"MEAN_MOTION_DDOT":0},{"OBJECT_NAME":"FLOCK 4Q-16","OBJECT_ID":"2023-174R","EPOCH":"2026-04-05T18:07:10.688448","MEAN_MOTION":15.46293987,"ECCENTRICITY":0.0007102,"INCLINATION":97.3835,"RA_OF_ASC_NODE":182.3603,"ARG_OF_PERICENTER":74.4335,"MEAN_ANOMALY":285.7698,"EPHEMERIS_TYPE":0,"CLASSIFICATION_TYPE":"U","NORAD_CAT_ID":58271,"ELEMENT_SET_NO":999,"REV_AT_EPOCH":13437,"BSTAR":0.00052356,"MEAN_MOTION_DOT":0.00025779,"MEAN_MOTION_DDOT":0},{"OBJECT_NAME":"FLOCK 4Q-11","OBJECT_ID":"2023-174T","EPOCH":"2026-04-05T19:40:34.632192","MEAN_MOTION":15.46712827,"ECCENTRICITY":0.0006705,"INCLINATION":97.3872,"RA_OF_ASC_NODE":182.939,"ARG_OF_PERICENTER":72.4782,"MEAN_ANOMALY":287.72,"EPHEMERIS_TYPE":0,"CLASSIFICATION_TYPE":"U","NORAD_CAT_ID":58273,"ELEMENT_SET_NO":999,"REV_AT_EPOCH":13439,"BSTAR":0.0004727,"MEAN_MOTION_DOT":0.00023595,"MEAN_MOTION_DDOT":0}]
